MALLIGYONG-1            
1 58400U 23179A   24140.58358488  .00012412  00000+0  53579-3 0  9990
2 58400  97.4080  27.8743 0009292  14.9852 345.1658 15.22617185 27378
